start=new Date('2022-12-09T00:00:00.000Z').valueOf();
sats=[{"SITE":"AFETR","OBJECT_ID":"2022-086L","MEAN_MOTION_DDOT":"0.0000000000000","ECCENTRICITY":"0.00021970","ELEMENT_SET_NO":"999","OBJECT_NAME":"STARLINK-4132","FILE":"3684925","TLE_LINE1":"1 53252U 22086L   22342.82095931  .00001533  00000-0  11443-3 0  9993","REV_AT_EPOCH":"2190","DECAY_DATE":null,"CLASSIFICATION_TYPE":"U","MEAN_MOTION":"15.08842016","ARG_OF_PERICENTER":"36.9276","APOAPSIS":"541.259","TIME_SYSTEM":"UTC","BSTAR":"0.00011443000000","TLE_LINE2":"2 53252  53.2161 122.1916 0002197  36.9276 323.1867 15.08842016 21908","RCS_SIZE":"LARGE","PERIAPSIS":"538.219","MEAN_ANOMALY":"323.1867","EPOCH":"2022-12-08T19:42:10.884384","EPHEMERIS_TYPE":"0","LAUNCH_DATE":"2022-07-24","OBJECT_TYPE":"PAYLOAD","NORAD_CAT_ID":"53252","CENTER_NAME":"EARTH","INCLINATION":"53.2161","SEMIMAJOR_AXIS":"6917.874","COUNTRY_CODE":"US","PERIOD":"95.437","RA_OF_ASC_NODE":"122.1916","MEAN_ELEMENT_THEORY":"SGP4","GP_ID":"219812193","REF_FRAME":"TEME","MEAN_MOTION_DOT":"0.00001533"},{"TLE_LINE1":"1 53253U 22086M   22342.67647986  .00001137  00000-0  89526-4 0  9998","DECAY_DATE":null,"CLASSIFICATION_TYPE":"U","MEAN_MOTION":"15.08845301","REV_AT_EPOCH":"2186","TIME_SYSTEM":"UTC","APOAPSIS":"541.475","ARG_OF_PERICENTER":"43.9360","RCS_SIZE":"MEDIUM","TLE_LINE2":"2 53253  53.2173 122.8346 0002523  43.9360 316.1833 15.08845301 21861","BSTAR":"0.00008952600000","SITE":"AFETR","MEAN_MOTION_DDOT":"0.0000000000000","OBJECT_ID":"2022-086M","OBJECT_NAME":"STARLINK-4133","ELEMENT_SET_NO":"999","ECCENTRICITY":"0.00025230","FILE":"3684925","GP_ID":"219811596","REF_FRAME":"TEME","MEAN_MOTION_DOT":"0.00001137","PERIAPSIS":"537.984","EPOCH":"2022-12-08T16:14:07.859904","MEAN_ANOMALY":"316.1833","NORAD_CAT_ID":"53253","OBJECT_TYPE":"PAYLOAD","LAUNCH_DATE":"2022-07-24","EPHEMERIS_TYPE":"0","CENTER_NAME":"EARTH","MEAN_ELEMENT_THEORY":"SGP4","PERIOD":"95.437","RA_OF_ASC_NODE":"122.8346","COUNTRY_CODE":"US","SEMIMAJOR_AXIS":"6917.864","INCLINATION":"53.2173"},{"PERIAPSIS":"537.702","MEAN_ANOMALY":"306.1124","EPOCH":"2022-12-08T16:24:44.261568","EPHEMERIS_TYPE":"0","LAUNCH_DATE":"2022-07-24","OBJECT_TYPE":"PAYLOAD","NORAD_CAT_ID":"53254","CENTER_NAME":"EARTH","INCLINATION":"53.2177","SEMIMAJOR_AXIS":"6917.878","COUNTRY_CODE":"US","PERIOD":"95.437","RA_OF_ASC_NODE":"122.8051","MEAN_ELEMENT_THEORY":"SGP4","GP_ID":"219811188","REF_FRAME":"TEME","MEAN_MOTION_DOT":"0.00000455","SITE":"AFETR","OBJECT_ID":"2022-086N","MEAN_MOTION_DDOT":"0.0000000000000","ECCENTRICITY":"0.00029500","ELEMENT_SET_NO":"999","OBJECT_NAME":"STARLINK-4134","FILE":"3684925","TLE_LINE1":"1 53254U 22086N   22342.68384562  .00000455  00000-0  46688-4 0  9992","REV_AT_EPOCH":"2188","CLASSIFICATION_TYPE":"U","DECAY_DATE":null,"MEAN_MOTION":"15.08840933","ARG_OF_PERICENTER":"54.0142","APOAPSIS":"541.783","TIME_SYSTEM":"UTC","BSTAR":"0.00004668800000","TLE_LINE2":"2 53254  53.2177 122.8051 0002950  54.0142 306.1124 15.08840933 21884","RCS_SIZE":"LARGE"},{"PERIAPSIS":"537.796","MEAN_ANOMALY":"302.7900","EPOCH":"2022-12-08T16:03:31.404672","NORAD_CAT_ID":"53255","OBJECT_TYPE":"PAYLOAD","EPHEMERIS_TYPE":"0","LAUNCH_DATE":"2022-07-24","CENTER_NAME":"EARTH","RA_OF_ASC_NODE":"122.8709","PERIOD":"95.437","MEAN_ELEMENT_THEORY":"SGP4","INCLINATION":"53.2169","COUNTRY_CODE":"US","SEMIMAJOR_AXIS":"6917.837","GP_ID":"219811392","REF_FRAME":"TEME","MEAN_MOTION_DOT":"0.00002720","SITE":"AFETR","MEAN_MOTION_DDOT":"0.0000000000000","OBJECT_ID":"2022-086P","OBJECT_NAME":"STARLINK-4142","ECCENTRICITY":"0.00027550","ELEMENT_SET_NO":"999","FILE":"3684925","TLE_LINE1":"1 53255U 22086P   22342.66911348  .00002720  00000-0  18887-3 0  9995","DECAY_DATE":null,"MEAN_MOTION":"15.08854265","CLASSIFICATION_TYPE":"U","REV_AT_EPOCH":"2186","TIME_SYSTEM":"UTC","ARG_OF_PERICENTER":"57.3357","APOAPSIS":"541.608","TLE_LINE2":"2 53255  53.2169 122.8709 0002755  57.3357 302.7900 15.08854265 21868","RCS_SIZE":"LARGE","BSTAR":"0.00018887000000"},{"FILE":"3684925","OBJECT_NAME":"STARLINK-4147","ECCENTRICITY":"0.00027110","ELEMENT_SET_NO":"999","MEAN_MOTION_DDOT":"0.0000000000000","OBJECT_ID":"2022-086Q","SITE":"AFETR","RCS_SIZE":"LARGE","TLE_LINE2":"2 53256  53.2193 122.8619 0002711  45.1079 315.0133 15.08848389 21869","BSTAR":"0.00015822000000","TIME_SYSTEM":"UTC","ARG_OF_PERICENTER":"45.1079","APOAPSIS":"541.595","DECAY_DATE":null,"MEAN_MOTION":"15.08848389","CLASSIFICATION_TYPE":"U","REV_AT_EPOCH":"2186","TLE_LINE1":"1 53256U 22086Q   22342.67280244  .00002231  00000-0  15822-3 0  9994","PERIOD":"95.437","RA_OF_ASC_NODE":"122.8619","MEAN_ELEMENT_THEORY":"SGP4","INCLINATION":"53.2193","COUNTRY_CODE":"US","SEMIMAJOR_AXIS":"6917.855","CENTER_NAME":"EARTH","NORAD_CAT_ID":"53256","OBJECT_TYPE":"PAYLOAD","EPHEMERIS_TYPE":"0","LAUNCH_DATE":"2022-07-24","EPOCH":"2022-12-08T16:08:50.130816","PERIAPSIS":"537.844","MEAN_ANOMALY":"315.0133","MEAN_MOTION_DOT":"0.00002231","REF_FRAME":"TEME","GP_ID":"219811800"},{"BSTAR":"0.00011361000000","RCS_SIZE":"LARGE","TLE_LINE2":"2 53257  53.2168 122.8990 0001663  50.5107 309.6032 15.08842899 21868","ARG_OF_PERICENTER":"50.5107","APOAPSIS":"540.887","TIME_SYSTEM":"UTC","REV_AT_EPOCH":"2186","MEAN_MOTION":"15.08842899","DECAY_DATE":null,"CLASSIFICATION_TYPE":"U","TLE_LINE1":"1 53257U 22086R   22342.65808600  .00001521  00000-0  11361-3 0  9990","FILE":"3684925","ECCENTRICITY":"0.00016630","ELEMENT_SET_NO":"999","OBJECT_NAME":"STARLINK-4144","OBJECT_ID":"2022-086R","MEAN_MOTION_DDOT":"0.0000000000000","SITE":"AFETR","MEAN_MOTION_DOT":"0.00001521","REF_FRAME":"TEME","GP_ID":"219811990","INCLINATION":"53.2168","SEMIMAJOR_AXIS":"6917.872","COUNTRY_CODE":"US","PERIOD":"95.437","RA_OF_ASC_NODE":"122.8990","MEAN_ELEMENT_THEORY":"SGP4","CENTER_NAME":"EARTH","EPHEMERIS_TYPE":"0","LAUNCH_DATE":"2022-07-24","NORAD_CAT_ID":"53257","OBJECT_TYPE":"PAYLOAD","EPOCH":"2022-12-08T15:47:38.630400","PERIAPSIS":"538.586","MEAN_ANOMALY":"309.6032"},{"GP_ID":"219783879","MEAN_MOTION_DOT":"0.00003917","REF_FRAME":"TEME","LAUNCH_DATE":"2022-07-24","EPHEMERIS_TYPE":"0","OBJECT_TYPE":"PAYLOAD","NORAD_CAT_ID":"53258","MEAN_ANOMALY":"354.8145","PERIAPSIS":"537.801","EPOCH":"2022-12-08T09:36:38.879136","SEMIMAJOR_AXIS":"6917.759","COUNTRY_CODE":"US","INCLINATION":"53.2172","MEAN_ELEMENT_THEORY":"SGP4","PERIOD":"95.435","RA_OF_ASC_NODE":"124.0734","CENTER_NAME":"EARTH","REV_AT_EPOCH":"2164","CLASSIFICATION_TYPE":"U","DECAY_DATE":null,"MEAN_MOTION":"15.08879633","TLE_LINE1":"1 53258U 22086S   22342.40044999  .00003917  00000-0  26382-3 0  9997","BSTAR":"0.00026382000000","TLE_LINE2":"2 53258  53.2172 124.0734 0002636   5.2875 354.8145 15.08879633 21643","RCS_SIZE":"LARGE","APOAPSIS":"541.448","ARG_OF_PERICENTER":"5.2875","TIME_SYSTEM":"UTC","OBJECT_ID":"2022-086S","MEAN_MOTION_DDOT":"0.0000000000000","SITE":"AFETR","FILE":"3684822","ELEMENT_SET_NO":"999","ECCENTRICITY":"0.00026360","OBJECT_NAME":"STARLINK-4127"},{"CENTER_NAME":"EARTH","MEAN_ELEMENT_THEORY":"SGP4","PERIOD":"95.437","RA_OF_ASC_NODE":"122.9095","COUNTRY_CODE":"US","SEMIMAJOR_AXIS":"6917.860","INCLINATION":"53.2172","PERIAPSIS":"538.616","EPOCH":"2022-12-08T15:43:43.553280","MEAN_ANOMALY":"301.6022","OBJECT_TYPE":"PAYLOAD","NORAD_CAT_ID":"53259","LAUNCH_DATE":"2022-07-24","EPHEMERIS_TYPE":"0","REF_FRAME":"TEME","MEAN_MOTION_DOT":"0.00000244","GP_ID":"219810972","OBJECT_NAME":"STARLINK-4140","ELEMENT_SET_NO":"999","ECCENTRICITY":"0.00016030","FILE":"3684925","SITE":"AFETR","MEAN_MOTION_DDOT":"0.0000000000000","OBJECT_ID":"2022-086T","TIME_SYSTEM":"UTC","APOAPSIS":"540.834","ARG_OF_PERICENTER":"58.5126","RCS_SIZE":"LARGE","TLE_LINE2":"2 53259  53.2172 122.9095 0001603  58.5126 301.6022 15.08846788 21867","BSTAR":"0.00003343100000","TLE_LINE1":"1 53259U 22086T   22342.65536520  .00000244  00000-0  33431-4 0  9995","MEAN_MOTION":"15.08846788","DECAY_DATE":null,"CLASSIFICATION_TYPE":"U","REV_AT_EPOCH":"2186"},{"TLE_LINE1":"1 53260U 22086U   22342.66176149  .00001558  00000-0  11596-3 0  9991","DECAY_DATE":null,"CLASSIFICATION_TYPE":"U","MEAN_MOTION":"15.08847237","REV_AT_EPOCH":"2186","TIME_SYSTEM":"UTC","APOAPSIS":"540.759","ARG_OF_PERICENTER":"53.0577","RCS_SIZE":"LARGE","TLE_LINE2":"2 53260  53.2165 122.8957 0001497  53.0577 307.0552 15.08847237 21866","BSTAR":"0.00011596000000","SITE":"AFETR","MEAN_MOTION_DDOT":"0.0000000000000","OBJECT_ID":"2022-086U","OBJECT_NAME":"STARLINK-4136","ELEMENT_SET_NO":"999","ECCENTRICITY":"0.00014970","FILE":"3684925","GP_ID":"219812194","REF_FRAME":"TEME","MEAN_MOTION_DOT":"0.00001558","PERIAPSIS":"538.688","MEAN_ANOMALY":"307.0552","EPOCH":"2022-12-08T15:52:56.192736","OBJECT_TYPE":"PAYLOAD","NORAD_CAT_ID":"53260","LAUNCH_DATE":"2022-07-24","EPHEMERIS_TYPE":"0","CENTER_NAME":"EARTH","MEAN_ELEMENT_THEORY":"SGP4","PERIOD":"95.437","RA_OF_ASC_NODE":"122.8957","SEMIMAJOR_AXIS":"6917.858","COUNTRY_CODE":"US","INCLINATION":"53.2165"},{"OBJECT_NAME":"STARLINK-4062","ECCENTRICITY":"0.00015150","ELEMENT_SET_NO":"999","FILE":"3684614","SITE":"AFETR","MEAN_MOTION_DDOT":"0.0000000000000","OBJECT_ID":"2022-086V","TIME_SYSTEM":"UTC","ARG_OF_PERICENTER":"58.2413","APOAPSIS":"540.790","RCS_SIZE":"LARGE","TLE_LINE2":"2 53261  53.2189 125.3267 0001515  58.2413 301.8727 15.08840969 21784","BSTAR":"0.00002276300000","TLE_LINE1":"1 53261U 22086V   22342.11713241  .00000074  00000-0  22763-4 0  9993","DECAY_DATE":null,"MEAN_MOTION":"15.08840969","CLASSIFICATION_TYPE":"U","REV_AT_EPOCH":"2178","CENTER_NAME":"EARTH","PERIOD":"95.437","RA_OF_ASC_NODE":"125.3267","MEAN_ELEMENT_THEORY":"SGP4","INCLINATION":"53.2189","SEMIMAJOR_AXIS":"6917.877","COUNTRY_CODE":"US","PERIAPSIS":"538.694","EPOCH":"2022-12-08T02:48:40.240224","MEAN_ANOMALY":"301.8727","NORAD_CAT_ID":"53261","OBJECT_TYPE":"PAYLOAD","EPHEMERIS_TYPE":"0","LAUNCH_DATE":"2022-07-24","REF_FRAME":"TEME","MEAN_MOTION_DOT":"0.00000074","GP_ID":"219778607"}];
